{
  "norad_id": 44709,
  "name": "BEIDOU-3 IGSO-3",
  "history": [
    {
      "epoch": "2026-03-27T22:31:01.388928Z",
      "apogee_km": 35962.28906304343,
      "perigee_km": 35616.44804947321,
      "latitude_deg": -4.133492865207515e-05,
      "longitude_deg": 118.6713113709163,
      "height_km": 35960.191894627154,
      "semi_major_axis_km": 42167.50555625832,
      "eccentricity": 0.0041008,
      "inclination_deg": 54.9409,
      "raan_deg": 281.7732,
      "arg_perigee_deg": 188.7198,
      "mean_anomaly_deg": 171.1983,
      "mean_motion_rev_day": 1.00261892
    }
  ]
}